IRIDIUM 155             
1 43573U 18061E   21160.59443586  .00000067  00000-0  16718-4 0  9992
2 43573  86.3963 103.0101 0001873  93.5013 266.6397 14.34217984150542
IRIDIUM 154             
1 43574U 18061F   21160.22656156  .00000064  00000-0  15915-4 0  9997
2 43574  86.3966 103.2100 0002377  78.7801 281.3662 14.34217079150541
IRIDIUM 163             
1 43575U 18061G   21160.55637622  .00000060  00000-0  14327-4 0  9993
2 43575  86.3963 103.0433 0002779  89.1972 270.9542 14.34218443150566
IRIDIUM 156             
1 43576U 18061H   21160.60078044  .00000062  00000-0  14995-4 0  9990
2 43576  86.3963 103.0298 0002355  93.2931 266.8534 14.34217734150564
IRIDIUM 164             
1 43577U 18061J   21160.23289166  .00000060  00000-0  14490-4 0  9997
2 43577  86.3965 103.1961 0002460  81.5683 278.5792 14.34219455150553
IRIDIUM 159             
1 43578U 18061K   21160.55002796  .00000063  00000-0  15536-4 0  9990
2 43578  86.3962 103.0388 0002364  80.9805 279.1658 14.34219060150566
IRIDIUM 180             
1 43922U 19002A   21160.61928465  .00000091  00000-0  25344-4 0  9995
2 43922  86.3991  39.8489 0002987  71.7575 288.3945 14.34220399126181
IRIDIUM 176             
1 43923U 19002B   21160.59416813  .00000174  00000-0  23612-4 0  9990
2 43923  86.6123  39.8918 0002391  83.0886 277.0603 14.72255079129475
IRIDIUM 168             
1 43924U 19002C   21160.61295102  .00000095  00000-0  26824-4 0  9990
2 43924  86.3992  39.8769 0002296  78.4909 281.6544 14.34215245126166
IRIDIUM 173             
1 43925U 19002D   21160.60025205  .00000093  00000-0  26269-4 0  9996
2 43925  86.3988  39.8457 0002313  81.2235 278.9223 14.34220138126148
IRIDIUM 169             
1 43926U 19002E   21160.48394747  .00000103  00000-0  27243-4 0  9998
2 43926  86.4238  71.4922 0002739 254.4120 105.6776 14.38608782126593
IRIDIUM 172             
1 43927U 19002F   21160.59392635  .00000093  00000-0  26032-4 0  9998
2 43927  86.3989  39.8507 0002369  79.2934 280.8528 14.34217158126150
IRIDIUM 175             
1 43928U 19002G   21160.58798400  .00000179  00000-0  24455-4 0  9990
2 43928  86.6108  39.7159 0002968  91.5876 268.5681 14.72256069129462
IRIDIUM 171             
1 43929U 19002H   21160.57488240  .00000091  00000-0  25450-4 0  9997
2 43929  86.3999  39.9612 0002269  78.4239 281.7211 14.34220517126140
IRIDIUM 170             
1 43930U 19002J   21160.60035336  .00000175  00000-0  23908-4 0  9996
2 43930  86.6123  39.8956 0002629  83.0019 277.1497 14.72252528129486
IRIDIUM 167             
1 43931U 19002K   21160.56856606  .00000097  00000-0  27549-4 0  9991
2 43931  86.3989  39.8674 0002737  72.3541 287.7954 14.34219957126144
